$$SOE
2459580.500000000, A.D. 2022-Jan-01 00:00:00.0000, -2.704787467884935E+08, 3.624952454852548E+08, -7.304001479249999E+07,
2459587.500000000, A.D. 2022-Jan-08 00:00:00.0000, -2.792549563548454E+08, 3.569735978762848E+08, -7.205265032671620E+07,
2459594.500000000, A.D. 2022-Jan-15 00:00:00.0000, -2.878909623470105E+08, 3.512726533972004E+08, -7.102909363308705E+07,
2459601.500000000, A.D. 2022-Jan-22 00:00:00.0000, -2.963831550887043E+08, 3.453961671881677E+08, -6.997003974137273E+07,
2459608.500000000, A.D. 2022-Jan-29 00:00:00.0000, -3.047280383610910E+08, 3.393479535313205E+08, -6.887619569896810E+07,
2459615.500000000, A.D. 2022-Feb-05 00:00:00.0000, -3.129222316913756E+08, 3.331318815704269E+08, -6.774827972327274E+07,
2459622.500000000, A.D. 2022-Feb-12 00:00:00.0000, -3.209624703427569E+08, 3.267518700260753E+08, -6.658702064852955E+07,
2459629.500000000, A.D. 2022-Feb-19 00:00:00.0000, -3.288456043392881E+08, 3.202118832763754E+08, -6.539315735302942E+07,
2459636.500000000, A.D. 2022-Feb-26 00:00:00.0000, -3.365685978457891E+08, 3.135159280847186E+08, -6.416743810770340E+07,
2459643.500000000, A.D. 2022-Mar-05 00:00:00.0000, -3.441285287501934E+08, 3.066680503622296E+08, -6.291061991285796E+07,
2459650.500000000, A.D. 2022-Mar-12 00:00:00.0000, -3.515225882322559E+08, 2.996723319028140E+08, -6.162346784999198E+07,
2459657.500000000, A.D. 2022-Mar-19 00:00:00.0000, -3.587480802528607E+08, 2.925328871217957E+08, -6.030675445382421E+07,
2459664.500000000, A.D. 2022-Mar-26 00:00:00.0000, -3.658024209465122E+08, 2.852538597945027E+08, -5.896125910769230E+07,
2459671.500000000, A.D. 2022-Apr-02 00:00:00.0000, -3.726831378539938E+08, 2.778394197406226E+08, -5.758776747351123E+07,
2459678.500000000, A.D. 2022-Apr-09 00:00:00.0000, -3.793878687278005E+08, 2.702937594602308E+08, -5.618707098108207E+07,
2459685.500000000, A.D. 2022-Apr-16 00:00:00.0000, -3.859143595578724E+08, 2.626210913760329E+08, -5.475996635618486E+07,
2459692.500000000, A.D. 2022-Apr-23 00:00:00.0000, -3.922604630918137E+08, 2.548256467662673E+08, -5.330725498269673E+07,
2459699.500000000, A.D. 2022-Apr-30 00:00:00.0000, -3.984241397256729E+08, 2.469116741440856E+08, -5.182974211121388E+07,
2459706.500000000, A.D. 2022-May-07 00:00:00.0000, -4.044034577063109E+08, 2.388834351109411E+08, -5.032823635635600E+07,
2459713.500000000, A.D. 2022-May-14 00:00:00.0000, -4.101965912586544E+08, 2.307452007206047E+08, -4.880354936119619E+07,
2459720.500000000, A.D. 2022-May-21 00:00:00.0000, -4.158018186742281E+08, 2.225012491109457E+08, -4.725649538053428E+07,
2459727.500000000, A.D. 2022-May-28 00:00:00.0000, -4.212175208453467E+08, 2.141558634448721E+08, -4.568789081780836E+07,
2459734.500000000, A.D. 2022-Jun-04 00:00:00.0000, -4.264421799720160E+08, 2.057133298476199E+08, -4.409855376657696E+07,
2459741.500000000, A.D. 2022-Jun-11 00:00:00.0000, -4.314743783005479E+08, 1.971779353418937E+08, -4.248930356940106E+07,
2459748.500000000, A.D. 2022-Jun-18 00:00:00.0000, -4.363127968588892E+08, 1.885539657932162E+08, -4.086096039631405E+07,
2459755.500000000, A.D. 2022-Jun-25 00:00:00.0000, -4.409562141628799E+08, 1.798457038313483E+08, -3.921434484801213E+07,
2459762.500000000, A.D. 2022-Jul-02 00:00:00.0000, -4.454035047628873E+08, 1.710574266810287E+08, -3.755027760111477E+07,
2459769.500000000, A.D. 2022-Jul-09 00:00:00.0000, -4.496536372437515E+08, 1.621934040778206E+08, -3.586957911644362E+07,
2459776.500000000, A.D. 2022-Jul-16 00:00:00.0000, -4.537056717362527E+08, 1.532578973502946E+08, -3.417306931633574E+07,
2459783.500000000, A.D. 2022-Jul-23 00:00:00.0000, -4.575587591422064E+08, 1.442551597444358E+08, -3.246156702268320E+07,
2459790.500000000, A.D. 2022-Jul-30 00:00:00.0000, -4.612121419934728E+08, 1.351894346354499E+08, -3.073588943732901E+07,
2459797.500000000, A.D. 2022-Aug-06 00:00:00.0000, -4.646651533482973E+08, 1.260649522745536E+08, -2.899685194129124E+07,
2459804.500000000, A.D. 2022-Aug-13 00:00:00.0000, -4.679172145491042E+08, 1.168859278226926E+08, -2.724526791125729E+07,
2459811.500000000, A.D. 2022-Aug-20 00:00:00.0000, -4.709678334141659E+08, 1.076565601648694E+08, -2.548194845009308E+07,
2459818.500000000, A.D. 2022-Aug-27 00:00:00.0000, -4.738166027988037E+08, 9.838103077687986E+07, -2.370770209673763E+07,
2459825.500000000, A.D. 2022-Sep-03 00:00:00.0000, -4.764631992810620E+08, 8.906350253266296E+07, -2.192333454683160E+07,
2459832.500000000, A.D. 2022-Sep-10 00:00:00.0000, -4.789073818840344E+08, 7.970811847472210E+07, -2.012964838989553E+07,
2459839.500000000, A.D. 2022-Sep-17 00:00:00.0000, -4.811489908074248E+08, 7.031900054442805E+07, -1.832744286544704E+07,
2459846.500000000, A.D. 2022-Sep-24 00:00:00.0000, -4.831879461094151E+08, 6.090024822001237E+07, -1.651751364732863E+07,
2459853.500000000, A.D. 2022-Oct-01 00:00:00.0000, -4.850242460995646E+08, 5.145593703858788E+07, -1.470065267964932E+07,
2459860.500000000, A.D. 2022-Oct-08 00:00:00.0000, -4.866579650353122E+08, 4.199011752237349E+07, -1.287764805862002E+07,
2459867.500000000, A.D. 2022-Oct-15 00:00:00.0000, -4.880892510537139E+08, 3.250681570536150E+07, -1.104928377655024E+07,
2459874.500000000, A.D. 2022-Oct-22 00:00:00.0000, -4.893183265215613E+08, 2.301003357285090E+07, -9.216339265584856E+06,
2459881.500000000, A.D. 2022-Oct-29 00:00:00.0000, -4.903454883094976E+08, 1.350374681779660E+07, -7.379589182491882E+06,
2459888.500000000, A.D. 2022-Nov-05 00:00:00.0000, -4.911711058929064E+08, 3.991902653950077E+06, -5.539803403033361E+06,
2459895.500000000, A.D. 2022-Nov-12 00:00:00.0000, -4.917956192451885E+08, -5.521581048725054E+06, -3.697746941996919E+06,
2459902.500000000, A.D. 2022-Nov-19 00:00:00.0000, -4.922195372445080E+08, -1.503281626252352E+07, -1.854179810844012E+06,
2459909.500000000, A.D. 2022-Nov-26 00:00:00.0000, -4.924434363336401E+08, -2.453794533305578E+07, -9.856869365349412E+03,
2459916.500000000, A.D. 2022-Dec-03 00:00:00.0000, -4.924679592678187E+08, -3.403314155556571E+07, 1.834472312805176E+06,
2459923.500000000, A.D. 2022-Dec-10 00:00:00.0000, -4.922938139053344E+08, -4.351460977926798E+07, 3.678063582570357E+06,
2459930.500000000, A.D. 2022-Dec-17 00:00:00.0000, -4.919217720163193E+08, -5.297858706642833E+07, 5.520178313735820E+06,
2459937.500000000, A.D. 2022-Dec-24 00:00:00.0000, -4.913526680005444E+08, -6.242134347382978E+07, 7.360083486341918E+06,
2459944.500000000, A.D. 2022-Dec-31 00:00:00.0000, -4.905873971567944E+08, -7.183918285086080E+07, 9.197051711336043E+06,
2459951.500000000, A.D. 2023-Jan-07 00:00:00.0000, -4.896269133810634E+08, -8.122844269354208E+07, 1.103036126836005E+07,
2459958.500000000, A.D. 2023-Jan-14 00:00:00.0000, -4.884722282604918E+08, -9.058549255968158E+07, 1.285929637801155E+07,
2459965.500000000, A.D. 2023-Jan-21 00:00:00.0000, -4.871244122087269E+08, -9.990673422010650E+07, 1.468314750873646E+07,
2459972.500000000, A.D. 2023-Jan-28 00:00:00.0000, -4.855845939762276E+08, -1.091886037428688E+08, 1.650121136634628E+07,
2459979.500000000, A.D. 2023-Feb-04 00:00:00.0000, -4.838539587437976E+08, -1.184275724832713E+08, 1.831279083322699E+07,
2459986.500000000, A.D. 2023-Feb-11 00:00:00.0000, -4.819337465933961E+08, -1.276201471747127E+08, 2.011719500647488E+07,
2459993.500000000, A.D. 2023-Feb-18 00:00:00.0000, -4.798252514193200E+08, -1.367628699455999E+08, 2.191373927379253E+07,
2460000.500000000, A.D. 2023-Feb-25 00:00:00.0000, -4.775298200175774E+08, -1.458523184257942E+08, 2.370174539020472E+07,
2460007.500000000, A.D. 2023-Mar-04 00:00:00.0000, -4.750488512516641E+08, -1.548851059249010E+08, 2.548054154823346E+07,
2460014.500000000, A.D. 2023-Mar-11 00:00:00.0000, -4.723837952661195E+08, -1.638578816828200E+08, 2.724946243946198E+07,
2460021.500000000, A.D. 2023-Mar-18 00:00:00.0000, -4.695361527005613E+08, -1.727673312429252E+08, 2.900784929963859E+07,
2460028.500000000, A.D. 2023-Mar-25 00:00:00.0000, -4.665074737005595E+08, -1.816101769959114E+08, 3.075504991531689E+07,
2460035.500000000, A.D. 2023-Apr-01 00:00:00.0000, -4.632993563002924E+08, -1.903831785015947E+08, 3.249041858570983E+07,
2460042.500000000, A.D. 2023-Apr-08 00:00:00.0000, -4.599134447913993E+08, -1.990831313643283E+08, 3.421331619668539E+07,
2460049.500000000, A.D. 2023-Apr-15 00:00:00.0000, -4.563514304139380E+08, -2.077068657693692E+08, 3.592311053111791E+07,
2460056.500000000, A.D. 2023-Apr-22 00:00:00.0000, -4.526150525602175E+08, -2.162512477340083E+08, 3.761917640050144E+07,
2460063.500000000, A.D. 2023-Apr-29 00:00:00.0000, -4.487060977569096E+08, -2.247131808218216E+08, 3.930089553141813E+07,
2460070.500000000, A.D. 2023-May-06 00:00:00.0000, -4.446263981849690E+08, -2.330896065394818E+08, 4.096765651409906E+07,
2460077.500000000, A.D. 2023-May-13 00:00:00.0000, -4.403778307131125E+08, -2.413775043108475E+08, 4.261885482970133E+07,
2460084.500000000, A.D. 2023-May-20 00:00:00.0000, -4.359623162105789E+08, -2.495738915211188E+08, 4.425389289473531E+07,
2460091.500000000, A.D. 2023-May-27 00:00:00.0000, -4.313818189462599E+08, -2.576758236617564E+08, 4.587218010260783E+07,
2460098.500000000, A.D. 2023-Jun-03 00:00:00.0000, -4.266383460169564E+08, -2.656803945505577E+08, 4.747313285920648E+07,
2460105.500000000, A.D. 2023-Jun-10 00:00:00.0000, -4.217339467804199E+08, -2.735847366405252E+08, 4.905617460914505E+07,
2460112.500000000, A.D. 2023-Jun-17 00:00:00.0000, -4.166707122027778E+08, -2.813860214776952E+08, 5.062073583935305E+07,
2460119.500000000, A.D. 2023-Jun-24 00:00:00.0000, -4.114507737987863E+08, -2.890814602530977E+08, 5.216625403491993E+07,
2460126.500000000, A.D. 2023-Jul-01 00:00:00.0000, -4.060763019106354E+08, -2.966683036221461E+08, 5.369217363146481E+07,
2460133.500000000, A.D. 2023-Jul-08 00:00:00.0000, -4.005495049986581E+08, -3.041438399709773E+08, 5.519794618470002E+07,
2460140.500000000, A.D. 2023-Jul-15 00:00:00.0000, -3.948726312207013E+08, -3.115053949613690E+08, 5.668303064314441E+07,
$$EOE